AISTECHSAT 2            
1 43768U 18099L   26200.37386239  .00002392  00000+0  12889-3 0  9992
2 43768  97.4274 247.7063 0005073 167.0318 193.1046 15.15736788417156
FOX-1CLIFF (AO-95)      
1 43770U 18099N   26200.71065676  .00005896  00000+0  22293-3 0  9994
2 43770  97.4362 260.8482 0007617 221.4673 138.5989 15.27327547418188
RANGE-A                 
1 43773U 18099R   26200.83789963  .00001938  00000+0  11138-3 0  9991
2 43773  97.3948 242.4639 0008985 226.4445 133.6041 15.13629268417433
SNUSAT-2                
1 43782U 18099AA  26200.67827635  .00004094  00000+0  18064-3 0  9993
2 43782  97.4038 253.5693 0010707 172.5484 187.5913 15.22278571417978
SNUGLITE                
1 43784U 18099AC  26200.70098053  .00006196  00000+0  23080-3 0  9992
2 43784  97.3847 254.6720 0004007 148.3436 211.8045 15.27814969418288
ITASAT                  
1 43786U 18099AE  26200.62435112  .00003259  00000+0  15690-3 0  9991
2 43786  97.4008 251.4933 0011118 232.9708 127.0510 15.19411242417837
EAGLET-I                
1 43790U 18099AJ  26200.59045669  .00001578  00000+0  92539-4 0  9996
2 43790  97.4212 249.4021 0009882 226.9623 133.0781 15.13151890417233
ESEO                    
1 43792U 18099AL  26200.37520814  .00001072  00000+0  81016-4 0  9991
2 43792  97.3963 236.3838 0011096 217.1128 142.9333 15.04333053416649
THEA                    
1 43796U 18099AQ  26200.71948816  .00009702  00000+0  27851-3 0  9993
2 43796  97.4417 270.7499 0008414 159.8217 200.3361 15.36031281417682
ASTROCAST 0.1           
1 43798U 18099AS  26200.84937124  .00023565  00000+0  39715-3 0  9994
2 43798  97.4363 280.4168 0005409 116.6551 243.5255 15.51672086419491
JY1SAT (JO-97)          
1 43803U 18099AX  26200.70791220  .00009273  00000+0  27868-3 0  9997
2 43803  97.4105 263.6744 0007183 144.6783 215.4937 15.34606199418615
SUOMI-100               
1 43804U 18099AY  26200.67133222  .00006402  00000+0  22901-3 0  9990
2 43804  97.4163 260.9563 0010961 157.5717 202.6005 15.29092998418385
CENTAURI-1              
1 43809U 18099BD  26200.66943242  .00002464  00000+0  12912-3 0  9990
2 43809  97.4199 251.6943 0013386 208.4575 151.5928 15.16648732417429
GLOBAL-2                
1 43812U 18099BG  26200.83762095  .00001766  00000+0  11596-3 0  9999
2 43812  97.3546 235.9937 0007096  54.5572 305.6319 15.08841910416838
SEAHAWK-1               
1 43820U 18099BQ  26200.59174397  .00004205  00000+0  18022-3 0  9995
2 43820  97.3936 252.5907 0008350 182.8877 177.2313 15.23279147417460
SAUDISAT 5A             
1 43831U 18102A   26200.83844786  .00002733  00000+0  10155-3 0  9998
2 43831  97.3045 261.7933 0009995  28.7979 331.3810 15.28347350420669
SAUDISAT 5B             
1 43833U 18102C   26200.85198081  .00002520  00000+0  93140-4 0  9992
2 43833  97.3155 264.9355 0010761  30.0731 330.1125 15.28588949420781
ISAT                    
1 43879U 18111D   26200.82684061  .00081147  00000+0  62698-3 0  9992
2 43879  97.5847 138.7178 0008409 131.1464 229.0525 15.71622952416285
UWE-4                   
1 43880U 18111E   26200.74821662  .00018901  00000+0  36288-3 0  9999
2 43880  97.5828 130.6868 0006845 177.3378 182.7909 15.47997215415810
D-STAR ONE (SPARROW)    
1 43881U 18111F   26200.80511339  .00207395  00000+0  79431-3 0  9998
2 43881  97.6067 145.0445 0009005 135.6604 224.5389 15.86854129416523
JILIN-1 09              
1 43943U 19005B   26200.81847344  .00002357  00000+0  11019-3 0  9998
2 43943  97.4742 295.5089 0001909  26.0305 334.1026 15.20762825414108
JILIN-1 10              
1 43946U 19005E   26200.84978132  .00003076  00000+0  12228-3 0  9996
2 43946  97.4794 299.6632 0009004 154.7710 205.3970 15.26036038414293
EGYPTSAT-A (MISRSAT-A)  
1 44047U 19008A   26200.83236277  .00000270  00000+0  50474-4 0  9997
2 44047  98.0174 265.1543 0001768  91.8708 268.2702 14.72339121398045
EMISAT                  
1 44078U 19018A   26200.85817624 -.00000170  00000+0 -37131-4 0  9991
2 44078  98.4625 259.4756 0019533 118.0193 242.2976 14.43649594384771
JILIN-1 GAOFEN 3A       
1 44312U 19032C   26200.86259906  .00006850  00000+0  21843-3 0  9993
2 44312  44.9737 177.0100 0005026 139.7603 220.3655 15.33252296392856
WT 1B                   
1 44316U 19032G   26200.83285164  .00003630  00000+0  14203-3 0  9994
2 44316  44.9727 242.6610 0008138  65.0928 295.0799 15.27770767392075
PROX-1                  
1 44339U 19036A   26200.85034441  .00006073  00000+0  56662-3 0  9994
2 44339  23.9941 255.9362 0006395  58.2648 301.8475 14.91301779378357
NPSAT1                  
1 44340U 19036B   26200.86738356  .00002871  00000+0  38261-3 0  9990
2 44340  24.0005   4.8641 0007208 221.2067 138.7885 14.74845516377325
FORMOSAT 7-3            
1 44343U 19036E   26200.63089963  .00002342  00000+0  11969-3 0  9990
2 44343  23.9997 315.2080 0000389 354.6825   5.3675 15.10013320388158
