OBJECT_NAME,OBJECT_ID,EPOCH,MEAN_MOTION,ECCENTRICITY,INCLINATION,RA_OF_ASC_NODE,ARG_OF_PERICENTER,MEAN_ANOMALY,EPHEMERIS_TYPE,CLASSIFICATION_TYPE,NORAD_CAT_ID,ELEMENT_SET_NO,REV_AT_EPOCH,BSTAR,MEAN_MOTION_DOT,MEAN_MOTION_DDOT
AISTECHSAT 2,2018-099L,2026-07-19T08:58:21.710496,15.15736788,.00050736,97.4274,247.7063,167.0318,193.1046,0,U,43768,999,41715,.12889217E-3,.2392E-4,0
FOX-1CLIFF (AO-95),2018-099N,2026-07-19T17:03:20.744064,15.27327547,.0007617,97.4362,260.8482,221.4673,138.5989,0,U,43770,999,41818,.22293E-3,.5896E-4,0
RANGE-A,2018-099R,2026-07-19T20:06:34.528032,15.13629268,.0008985,97.3948,242.4639,226.4445,133.6041,0,U,43773,999,41743,.11138E-3,.1938E-4,0
SNUSAT-2,2018-099AA,2026-07-19T16:16:43.076640,15.22278571,.0010707,97.4038,253.5693,172.5484,187.5913,0,U,43782,999,41797,.18064E-3,.4094E-4,0
SNUGLITE,2018-099AC,2026-07-19T16:49:24.717792,15.27814969,.0004007,97.3847,254.6720,148.3436,211.8045,0,U,43784,999,41828,.2308E-3,.6196E-4,0
ITASAT,2018-099AE,2026-07-19T14:59:03.936768,15.19411242,.0011118,97.4008,251.4933,232.9708,127.0510,0,U,43786,999,41783,.1569E-3,.3259E-4,0
EAGLET-I,2018-099AJ,2026-07-19T14:10:15.458016,15.13151890,.0009882,97.4212,249.4021,226.9623,133.0781,0,U,43790,999,41723,.92539E-4,.1578E-4,0
ESEO,2018-099AL,2026-07-19T09:00:17.983296,15.04333053,.00110967,97.3963,236.3838,217.1128,142.9333,0,U,43792,999,41664,.81015597E-4,.1072E-4,0
THEA,2018-099AQ,2026-07-19T17:16:03.777024,15.36031281,.0008414,97.4417,270.7499,159.8217,200.3361,0,U,43796,999,41768,.27851E-3,.9702E-4,0
ASTROCAST 0.1,2018-099AS,2026-07-19T20:23:05.675136,15.51672086,.0005409,97.4363,280.4168,116.6551,243.5255,0,U,43798,999,41949,.39715E-3,.23565E-3,0
JY1SAT (JO-97),2018-099AX,2026-07-19T16:59:23.614080,15.34606199,.0007183,97.4105,263.6744,144.6783,215.4937,0,U,43803,999,41861,.27868E-3,.9273E-4,0
SUOMI-100,2018-099AY,2026-07-19T16:06:43.103808,15.29092998,.0010961,97.4163,260.9563,157.5717,202.6005,0,U,43804,999,41838,.22901E-3,.6402E-4,0
CENTAURI-1,2018-099BD,2026-07-19T16:03:58.961088,15.16648732,.0013386,97.4199,251.6943,208.4575,151.5928,0,U,43809,999,41742,.12912E-3,.2464E-4,0
GLOBAL-2,2018-099BG,2026-07-19T20:06:10.450080,15.08841910,.0007096,97.3546,235.9937,54.5572,305.6319,0,U,43812,999,41683,.11596E-3,.1766E-4,0
SEAHAWK-1,2018-099BQ,2026-07-19T14:12:06.679008,15.23279147,.000835,97.3936,252.5907,182.8877,177.2313,0,U,43820,999,41746,.18022E-3,.4205E-4,0
SAUDISAT 5A,2018-102A,2026-07-19T20:07:21.895104,15.28347350,.0009995,97.3045,261.7933,28.7979,331.3810,0,U,43831,999,42066,.10155E-3,.2733E-4,0
SAUDISAT 5B,2018-102C,2026-07-19T20:26:51.141984,15.28588949,.0010761,97.3155,264.9355,30.0731,330.1125,0,U,43833,999,42078,.9314E-4,.252E-4,0
ISAT,2018-111D,2026-07-19T19:50:39.028704,15.71622952,.0008409,97.5847,138.7178,131.1464,229.0525,0,U,43879,999,41628,.62698E-3,.81147E-3,0
UWE-4,2018-111E,2026-07-19T17:57:25.915968,15.47997215,.0006845,97.5828,130.6868,177.3378,182.7909,0,U,43880,999,41581,.36288E-3,.18901E-3,0
D-STAR ONE (SPARROW),2018-111F,2026-07-19T19:19:21.796896,15.86854129,.0009005,97.6067,145.0445,135.6604,224.5389,0,U,43881,999,41652,.79431E-3,.207395E-2,0
JILIN-1 09,2019-005B,2026-07-19T19:38:36.105216,15.20762825,.0001909,97.4742,295.5089,26.0305,334.1026,0,U,43943,999,41410,.11019E-3,.2357E-4,0
JILIN-1 10,2019-005E,2026-07-19T20:23:41.106048,15.26036038,.0009004,97.4794,299.6632,154.7710,205.3970,0,U,43946,999,41429,.12228E-3,.3076E-4,0
EGYPTSAT-A (MISRSAT-A),2019-008A,2026-07-19T19:58:36.143328,14.72339121,.0001768,98.0174,265.1543,91.8708,268.2702,0,U,44047,999,39804,.50474E-4,.27E-5,0
EMISAT,2019-018A,2026-07-19T20:35:46.427136,14.43649594,.0019533,98.4625,259.4756,118.0193,242.2976,0,U,44078,999,38477,-.37131E-4,-.17E-5,0
JILIN-1 GAOFEN 3A,2019-032C,2026-07-19T20:42:08.558784,15.33252296,.0005026,44.9737,177.0100,139.7603,220.3655,0,U,44312,999,39285,.21843E-3,.685E-4,0
WT 1B,2019-032G,2026-07-19T19:59:18.381696,15.27770767,.0008138,44.9727,242.6610,65.0928,295.0799,0,U,44316,999,39207,.14203E-3,.363E-4,0
PROX-1,2019-036A,2026-07-19T20:24:29.757024,14.91301779,.0006395,23.9941,255.9362,58.2648,301.8475,0,U,44339,999,37835,.56662E-3,.6073E-4,0
NPSAT1,2019-036B,2026-07-19T20:49:01.939584,14.74845516,.0007208,24.0005,4.8641,221.2067,138.7885,0,U,44340,999,37732,.38261E-3,.2871E-4,0
FORMOSAT 7-3,2019-036E,2026-07-19T15:08:29.728032,15.10013320,.0000389,23.9997,315.2080,354.6825,5.3675,0,U,44343,999,38815,.11969E-3,.2342E-4,0
